STARLINK-36983
1 68323U 26059C   26092.33335648  .00086606  00000+0  43903-3 0  9995
2 68323  53.1592 244.3885 0001022 102.0899 241.5809 15.80818708  2846
